1 32788U 08021F   19222.93605552  .00000329  00000-0  35238-4 0  9999
2 32788  97.4963 236.3104 0012530  29.0273 331.1643 14.94766136612772
